0 EUTE 7 WEST A (AB 7)
1 37816U 11051A   19196.15882352 -.00000072  00000-0  00000+0 0  9992
2 37816   0.0660  41.3895 0005832  95.9741 205.2032  1.00272431 28613
0 EUTE 7 WEST A (AB 7)
1 37816U 11051A   19196.76525414 -.00000071  00000-0  00000+0 0  9991
2 37816   0.0600 355.5745 0006228 147.1834  58.7283  1.00272876 28616
0 QUETZSAT 1
1 37826U 11054A   19196.79099917 -.00000253  00000-0  00000+0 0  9994
2 37826   0.0144  40.7434 0002999  71.3442  29.0007  1.00271788 28742
0 QUETZSAT 1
1 37826U 11054A   19195.85780421 -.00000253 +00000-0 +00000-0 0  9998
2 37826 000.0136 034.4032 0002990 075.9282 053.8870 01.00271984024556
0 BREEZE-M R/B
1 37827U 11054B   19195.58075097 -.00000259 +00000-0 +00000-0 0  9991
2 37827 017.2158 227.3696 5580013 069.1862 022.8144 02.07658527057849
0 BREEZE-M R/B
1 37827U 11054B   19196.57443147 -.00000245  00000-0  00000+0 0  9990
2 37827  17.2144 227.2100 5579970  69.4716  45.6600  2.07658383 60242
0 BREEZE-M DEB (TANK)
1 37828U 11054C   19195.42731639 +.00000447 +00000-0 +12226-3 0  9990
2 37828 049.4355 232.1851 5564622 148.2966 262.5687 04.66200847128653
0 BREEZE-M DEB (TANK)
1 37828U 11054C   19196.07036453  .00000433  00000-0  11374-3 0  9992
2 37828  49.4358 231.7602 5564547 148.6622 261.8096  4.66201185129107
0 COSMOS 2474 (GLONASS)
1 37829U 11055A   19196.74404416  .00000000  00000-0  00000+0 0  9996
2 37829  64.5254 158.5340 0010747 253.0812 172.1144  2.13101843 60585
0 COSMOS 2474 (GLONASS)
1 37829U 11055A   19195.62321420 +.00000007 +00000-0 +00000-0 0  9993
2 37829 064.5251 158.5720 0010840 253.2629 032.0722 02.13101880060550
0 FREGAT R/B
1 37830U 11055B   19195.89188163 +.00000011 +00000-0 +00000-0 0  9994
2 37830 064.4718 161.9560 0074337 120.1856 058.7961 02.09555747059552
0 NOAA 12 DEB
1 37831U 91032D   19195.87943800 +.00000616 +00000-0 +20178-3 0  9995
2 37831 098.4317 250.7514 0003820 160.0037 254.4650 14.41845189408250
0 INTELSAT 18
1 37834U 11056A   19196.84220664  .00000042  00000-0  00000+0 0  9991
2 37834   0.0175  53.2014 0002795  63.5378 299.8277  1.00272559 28500
0 SL-23 R/B
1 37835U 11056B   19195.35504393 -.00000426 +00000-0 +00000-0 0  9999
2 37835 019.0828 310.8391 5688926 351.0918 001.9113 01.96799465055867
0 EUTE 16A (EUTE W3C)
1 37836U 11057A   19195.87629823 +.00000092 +00000-0 +00000-0 0  9992
2 37836 000.0651 026.2900 0004356 087.1566 150.4468 01.00272874020631
0 EUTE 16A (EUTE W3C)
1 37836U 11057A   19196.16344703  .00000093  00000-0  00000+0 0  9996
2 37836   0.0654  26.7026 0004354  86.9907 253.8579  1.00272985 28432
0 MEGHA-TROPIQUES
1 37838U 11058A   19195.58476973 +.00000286 +00000-0 +12384-4 0  9996
2 37838 019.9768 256.5442 0009693 085.9923 274.1589 14.09689037332867
0 MEGHA-TROPIQUES
1 37838U 11058A   19196.50497107  .00000280  00000-0  92343-5 0  9999
2 37838  19.9768 250.9923 0009651  95.5308 264.6197 14.09689017400231
0 JUGNU
1 37839U 11058B   19196.23434806  .00000302  00000-0  19126-4 0  9999
2 37839  19.9601 173.8178 0018717 259.5174 217.6481 14.12654073401018
0 JUGNU
1 37839U 11058B   19195.32020838 +.00000308 +00000-0 +21997-4 0  9999
2 37839 019.9600 179.3614 0018729 249.3598 248.8240 14.12654016400771
0 VESSELSAT 1
1 37840U 11058C   19196.41189033  .00000288  00000-0  12696-4 0  9998
2 37840  19.9621 219.6164 0013785 158.2263 201.8766 14.10884362400575
0 VESSELSAT 1
1 37840U 11058C   19196.12899404  .00000282  00000-0  93253-5 0  9999
2 37840  19.9619 221.3305 0013750 155.3671 204.7411 14.10884239400530
0 SRMSAT
1 37841U 11058D   19196.24123639  .00000279  00000-0  82610-5 0  9994
2 37841  19.9707 231.1045 0011971 127.6109 300.6747 14.10635039400440
0 SRMSAT
1 37841U 11058D   19195.55103878 +.00000286 +00000-0 +12096-4 0  9998
2 37841 019.9708 235.2760 0011982 120.0883 035.5967 14.10635082400253
0 PSLV R/B
1 37842U 11058E   19195.61341887 +.00000297 +00000-0 +99030-5 0  9996
2 37842 019.7930 273.5860 0060106 076.4436 284.2654 14.21102208403222
0 PSLV R/B
1 37842U 11058E   19196.52620592  .00000289  00000-0  63305-5 0  9997
2 37842  19.7929 267.9664 0060094  86.6495 274.0781 14.21102180403466
0 VIASAT 1
1 37843U 11059A   19196.53497310 -.00000035  00000-0  00000+0 0  9997
2 37843   0.0272  54.9763 0002875  56.5787 259.0207  1.00271886 28921
0 VIASAT 1
1 37843U 11059A   19195.63482920 -.00000035 +00000-0 +00000-0 0  9999
2 37843 000.0273 052.3199 0002849 058.3296 294.9851 01.00271341021958
0 BREEZE-M DEB (TANK)
1 37845U 11059C   19195.56626324 +.00000530 +00000-0 +10978-3 0  9998
2 37845 049.7461 016.4904 4596066 209.8717 113.4049 06.28719028175349
0 GALILEO-PFM
1 37846U 11060A   19194.90692545 -.00000076 +00000-0 +00000-0 0  9994
2 37846 056.3979 050.6445 0003243 013.0211 347.0558 01.70475767047987
0 GALILEO-PFM
1 37846U 11060A   19196.66667819 -.00000073  00000-0  00000+0 0  9991
2 37846  56.3993  50.5958 0003218  13.3474 346.7330  1.70475825 48145
0 NPP
1 37849U 11061A   19196.50882507 -.00000020  00000-0  11321-4 0  9996
2 37849  98.7366 134.3399 0001386 103.0799   4.8620 14.19544901399673
0 NPP
1 37849U 11061A   19195.93669707 -.00000010 +00000-0 +16174-4 0  9997
2 37849 098.7366 133.7754 0001377 103.4163 322.3900 14.19544913399605
0 COSMOS 2251 DEB
1 37850U 93036BPE 19196.51498360  .00000785  00000-0  24085-3 0  9998
2 37850  74.0133 256.8823 0043871 159.1120 201.1842 14.42747668404497
0 DICE 1
1 37851U 11061B   19196.19118119  .00001329  00000-0  76123-4 0  9998
2 37851 101.7333  99.3871 0182477  21.0249 339.8341 15.03399427420367
0 DICE 1
1 37851U 11061B   19195.79187523 +.00001330 +00000-0 +76150-4 0  9990
2 37851 101.7333 098.7837 0182482 022.1987 338.6998 15.03398067420026
0 DICE 2
1 37852U 11061C   19195.78443345 +.00001149 +00000-0 +65531-4 0  9996
2 37852 101.7154 108.7890 0164737 353.5496 006.3594 15.06396981420362
0 DICE 2
1 37852U 11061C   19196.18294554  .00001177  00000-0  66949-4 0  9992
2 37852 101.7154 109.3931 0164721 352.3682   7.5027 15.06398302420893
0 RAX-2
1 37853U 11061D   19196.52318116  .00001071  00000-0  65802-4 0  9992
2 37853 101.7096  97.4088 0170151  11.0858 349.4028 15.03467385420521
0 RAX-2
1 37853U 11061D   19195.65805623 +.00001094 +00000-0 +67021-4 0  9999
2 37853 101.7096 096.1040 0170175 013.6302 346.9421 15.03465061419912
0 AUBIESAT-1
1 37854U 11061E   19195.79590500 +.00000988 +00000-0 +58237-4 0  9990
2 37854 101.6993 107.4568 0160801 348.4044 011.3482 15.06470080420479
0 AUBIESAT-1
1 37854U 11061E   19195.99515157  .00000941  00000-0  55827-4 0  9998
2 37854 101.6993 107.7584 0160796 347.8153  11.9190 15.06470409420957
0 M-CUBED/EXP-1 PRIME
1 37855U 11061F   19196.18441499  .00001028  00000-0  59250-4 0  9999
2 37855 101.7123 105.3800 0173613 358.3578   1.7042 15.05476178420769
0 M-CUBED/EXP-1 PRIME
1 37855U 11061F   19195.78565949 +.00001037 +00000-0 +59645-4 0  9999
2 37855 101.7123 104.7766 0173621 359.5383 000.5642 15.05475030420230
0 SCOUT B DEB
1 37862U 65063AE  19196.34578370  .00009100  00000-0  37472-1 0  9993
2 37862  69.1624 297.7709 0819887 302.4266  49.9964 12.07231757441635
0 COSMOS 2477 (GLONASS)
1 37868U 11064B   19196.77426574  .00000000  00000-0  00000+0 0  9991
2 37868  64.5142 158.6338 0018530 245.6717  67.5317  2.13101801 59885
0 YAOGAN 12
1 37875U 11066B   19196.21087448  .00000602  00000-0  28165-4 0  9998
2 37875  97.4232 270.9518 0007421 246.5714 171.0954 15.23513025427506
0 YAOGAN 12
1 37875U 11066B   19196.48045688  .00000576  00000-0  27088-4 0  9990
2 37875  97.4231 271.2185 0007415 245.4927 209.7912 15.23513256427549
0 YAOGAN 12
1 37875U 11066B   19196.81690309  .00000562  00000-0  26507-4 0  9993
2 37875  97.4232 271.5513 0007407 243.8475 255.5436 15.23513593427598
0 SL-12 DEB
1 37884U 87079BP  19196.04237898  .00001081  00000-0  12811-2 0  9993
2 37884  65.2371  78.6999 5185639  41.8773 347.9838  5.14455692206428
0 SL-12 DEB
1 37884U 87079BP  19195.65360542 +.00000519 +00000-0 +69601-3 0  9997
2 37884 065.2373 078.8861 5185579 041.9041 347.9718 05.14455905132244
0 DMSP 5D-2 F10 DEB
1 37885U 90105AF  19195.57488690 +.00002250 +00000-0 +23437-3 0  9999
2 37885 098.3466 241.1362 0036165 111.5450 248.9627 14.90463224499674
0 DMSP 5D-2 F10 DEB
1 37885U 90105AF  19196.58189686  .00002331  00000-0  24254-3 0  9992
2 37885  98.3465 242.2001 0036121 108.5664 251.9481 14.90468143500939
0 NIMBUS 2 DEB
1 37888U 66040AT  19196.22127007  .00000516  00000-0  10156-2 0  9994
2 37888 100.6197  56.2916 0053266 113.9551   4.3389 13.40818870496888
0 NIMBUS 2 DEB
1 37888U 66040AT  19195.60499293 +.00000531 +00000-0 +10427-2 0  9992
2 37888 100.6197 055.6458 0053128 115.3996 269.6141 13.40818265496226
0 NIMBUS 2 DEB
1 37889U 66040AU  19196.08406194  .00000428  00000-0  85255-3 0  9991
2 37889 100.5907  40.6587 0053992  66.9751  84.7606 13.41183160472553
0 NIMBUS 2 DEB
1 37890U 66040AV  19196.45590274  .00000505  00000-0  10077-2 0  9992
2 37890 100.5259  16.6242 0052016  93.7541 320.7909 13.39982204382447
0 NIMBUS 2 DEB
1 37890U 66040AV  19195.48557943 +.00000505 +00000-0 +10072-2 0  9995
2 37890 100.5258 015.6177 0052052 095.9488 320.1176 13.39981051381804
0 NIMBUS 2 DEB
1 37891U 66040AW  19195.45979959 +.00000504 +00000-0 +10274-2 0  9991
2 37891 100.5846 016.4250 0069541 141.9242 218.6825 13.38214067394474
0 NIMBUS 2 DEB
1 37892U 66040AX  19195.95029830 +.00000466 +00000-0 +94176-3 0  9992
2 37892 100.5351 013.3112 0053546 096.1787 061.1132 13.39590159022449
0 NIMBUS 2 DEB
1 37892U 66040AX  19195.95029830  .00000466  00000-0  94176-3 0  9992
2 37892 100.5351  13.3112 0053546  96.1787  61.1132 13.39590159 22618
0 NIMBUS 2 DEB
1 37893U 66040AY  19195.00296659 +.00000449 +00000-0 +88679-3 0  9996
2 37893 100.5371 021.1588 0063999 084.1123 068.8938 13.41130085344615
